{"fetched_at":"2026-03-29T02:12:04Z","count":15717,"tles":[{"name":"STARLINK-35370","line1":"1 66085U 25235AD  26087.47457125  .00018337  00000+0  62963-3 0  9990","line2":"2 66085  53.1588 158.2834 0001244  92.0364 268.0780 15.30203407 25769","category":"Starlink"}]}